[{"OBJECT_NAME":"GAOFEN-9 05","OBJECT_ID":"2020-058A","EPOCH":"2026-03-10T00:01:50.876256","MEAN_MOTION":15.30293976,"ECCENTRICITY":0.0010522,"INCLINATION":97.2228,"RA_OF_ASC_NODE":111.963,"ARG_OF_PERICENTER":91.0204,"MEAN_ANOMALY":269.2242,"EPHEMERIS_TYPE":0,"CLASSIFICATION_TYPE":"U","NORAD_CAT_ID":46232,"ELEMENT_SET_NO":999,"REV_AT_EPOCH":30843,"BSTAR":0.00025120304,"MEAN_MOTION_DOT":7.299e-5,"MEAN_MOTION_DDOT":0},{"OBJECT_NAME":"STARLINK-32849","OBJECT_ID":"2025-022U","EPOCH":"2026-03-09T13:04:55.223904","MEAN_MOTION":15.30188738,"ECCENTRICITY":0.00013003,"INCLINATION":53.158,"RA_OF_ASC_NODE":130.6007,"ARG_OF_PERICENTER":92.1741,"MEAN_ANOMALY":267.9408,"EPHEMERIS_TYPE":0,"CLASSIFICATION_TYPE":"U","NORAD_CAT_ID":62872,"ELEMENT_SET_NO":999,"REV_AT_EPOCH":6187,"BSTAR":0.00066320546,"MEAN_MOTION_DOT":0.00019327,"MEAN_MOTION_DDOT":0}]
